{"type": "FeatureCollection", "features": [ {"type": "Feature", "properties": {"norad_id": 34833, "name": "IRIDIUM 33 DEB", "group": "iridium-33-debris", "lat": 48.839625931792085, "lon": -130.2141129285038, "alt_km": 698.7712315990566, "timestamp": "2025-12-05T22:40:48.934984+00:00", "meta": {"OBJECT_NAME": "IRIDIUM 33 DEB", "OBJECT_ID": "1997-051MH", "EPOCH": "2025-12-04T11:26:09.511872", "MEAN_MOTION": 14.52297117, "ECCENTRICITY": 0.00216, "INCLINATION": 86.3942, "RA_OF_ASC_NODE": 54.5547, "ARG_OF_PERICENTER": 123.9185, "MEAN_ANOMALY": 254.0843, "EPHEMERIS_TYPE": 0, "CLASSIFICATION_TYPE": "U", "NORAD_CAT_ID": 34833, "ELEMENT_SET_NO": 999, "REV_AT_EPOCH": 87595, "BSTAR": 0.0019345, "MEAN_MOTION_DOT": 7.908e-05, "MEAN_MOTION_DDOT": 0}, "tle": {"line1": "1 34833U 97051MH  25338.47649898  .00007908  00000+0  19345-2 0  9996", "line2": "2 34833  86.3942  54.5547 0021600 123.9185 254.0843 14.52297117875952"}}, "geometry": {"type": "Point", "coordinates": [-130.2141129285038, 48.839625931792085]}}, {"type": "Feature", "properties": {"norad_id": 34870, "name": "IRIDIUM 33 DEB", "group": "iridium-33-debris", "lat": -57.09712981135688, "lon": 142.9204987529113, "alt_km": 639.2378719921753, "timestamp": "2025-12-05T22:40:48.934994+00:00", "meta": {"OBJECT_NAME": "IRIDIUM 33 DEB", "OBJECT_ID": "1997-051MQ", "EPOCH": "2025-12-03T16:42:25.585344", "MEAN_MOTION": 14.7612151, "ECCENTRICITY": 0.00150063, "INCLINATION": 86.3102, "RA_OF_ASC_NODE": 318.2257, "ARG_OF_PERICENTER": 217.2591, "MEAN_ANOMALY": 316.7951, "EPHEMERIS_TYPE": 0, "CLASSIFICATION_TYPE": "U", "NORAD_CAT_ID": 34870, "ELEMENT_SET_NO": 999, "REV_AT_EPOCH": 88777, "BSTAR": 0.002200073, "MEAN_MOTION_DOT": 0.00015256, "MEAN_MOTION_DDOT": 0}, "tle": {"line1": "1 34870U 97051MQ  25337.69612946  .00015256  00000+0  22001-2 0  9992", "line2": "2 34870  86.3102 318.2257 0015006 217.2591 316.7951 14.76121510887778"}}, "geometry": {"type": "Point", "coordinates": [142.9204987529113, -57.09712981135688]}}, {"type": "Feature", "properties": {"norad_id": 34896, "name": "IRIDIUM 33 DEB", "group": "iridium-33-debris", "lat": -34.6496155454489, "lon": -32.81133246758086, "alt_km": 678.2264681364004, "timestamp": "2025-12-05T22:40:48.935005+00:00", "meta": {"OBJECT_NAME": "IRIDIUM 33 DEB", "OBJECT_ID": "1997-051MY", "EPOCH": "2025-12-04T17:55:03.279072", "MEAN_MOTION": 14.66149435, "ECCENTRICITY": 0.00238298, "INCLINATION": 86.3276, "RA_OF_ASC_NODE": 330.2702, "ARG_OF_PERICENTER": 244.1464, "MEAN_ANOMALY": 239.446, "EPHEMERIS_TYPE": 0, "CLASSIFICATION_TYPE": "U", "NORAD_CAT_ID": 34896, "ELEMENT_SET_NO": 999, "REV_AT_EPOCH": 87502, "BSTAR": 0.0022862777, "MEAN_MOTION_DOT": 0.00012651, "MEAN_MOTION_DDOT": 0}, "tle": {"line1": "1 34896U 97051MY  25338.74656573  .00012651  00000+0  22863-2 0  9993", "line2": "2 34896  86.3276 330.2702 0023829 244.1464 239.4460 14.66149435875023"}}, "geometry": {"type": "Point", "coordinates": [-32.81133246758086, -34.6496155454489]}}, {"type": "Feature", "properties": {"norad_id": 34926, "name": "IRIDIUM 33 DEB", "group": "iridium-33-debris", "lat": -13.666456321895177, "lon": 10.480433167433617, "alt_km": 670.5153094684001, "timestamp": "2025-12-05T22:40:48.935015+00:00", "meta": {"OBJECT_NAME": "IRIDIUM 33 DEB", "OBJECT_ID": "1997-051NF", "EPOCH": "2025-12-04T20:34:08.584320", "MEAN_MOTION": 14.53864036, "ECCENTRICITY": 0.0076536, "INCLINATION": 86.1319, "RA_OF_ASC_NODE": 11.927, "ARG_OF_PERICENTER": 319.676, "MEAN_ANOMALY": 95.4397, "EPHEMERIS_TYPE": 0, "CLASSIFICATION_TYPE": "U", "NORAD_CAT_ID": 34926, "ELEMENT_SET_NO": 999, "REV_AT_EPOCH": 86342, "BSTAR": 0.01059, "MEAN_MOTION_DOT": 0.00046543, "MEAN_MOTION_DDOT": 0}, "tle": {"line1": "1 34926U 97051NF  25338.85704380  .00046543  00000+0  10590-1 0  9999", "line2": "2 34926  86.1319  11.9270 0076536 319.6760  95.4397 14.53864036863423"}}, "geometry": {"type": "Point", "coordinates": [10.480433167433617, -13.666456321895177]}}, {"type": "Feature", "properties": {"norad_id": 34985, "name": "IRIDIUM 33 DEB", "group": "iridium-33-debris", "lat": 48.44765699859087, "lon": 63.88496547282399, "alt_km": 761.4928264420596, "timestamp": "2025-12-05T22:40:48.935025+00:00", "meta": {"OBJECT_NAME": "IRIDIUM 33 DEB", "OBJECT_ID": "1997-051NR", "EPOCH": "2025-12-03T17:45:54.671040", "MEAN_MOTION": 14.41942363, "ECCENTRICITY": 0.0019945, "INCLINATION": 86.3703, "RA_OF_ASC_NODE": 60.7182, "ARG_OF_PERICENTER": 251.1586, "MEAN_ANOMALY": 239.5788, "EPHEMERIS_TYPE": 0, "CLASSIFICATION_TYPE": "U", "NORAD_CAT_ID": 34985, "ELEMENT_SET_NO": 999, "REV_AT_EPOCH": 87045, "BSTAR": 0.0011135704, "MEAN_MOTION_DOT": 3.675e-05, "MEAN_MOTION_DDOT": 0}, "tle": {"line1": "1 34985U 97051NR  25337.74021610  .00003675  00000+0  11136-2 0  9996", "line2": "2 34985  86.3703  60.7182 0019945 251.1586 239.5788 14.41942363870451"}}, "geometry": {"type": "Point", "coordinates": [63.88496547282399, 48.44765699859087]}}, {"type": "Feature", "properties": {"norad_id": 35051, "name": "IRIDIUM 33 DEB", "group": "iridium-33-debris", "lat": -25.010629320800145, "lon": -166.4567042469281, "alt_km": 740.3394288721702, "timestamp": "2025-12-05T22:40:48.935052+00:00", "meta": {"OBJECT_NAME": "IRIDIUM 33 DEB", "OBJECT_ID": "1997-051NX", "EPOCH": "2025-12-02T20:44:20.358528", "MEAN_MOTION": 14.47524123, "ECCENTRICITY": 0.00104766, "INCLINATION": 86.3255, "RA_OF_ASC_NODE": 13.167, "ARG_OF_PERICENTER": 117.6322, "MEAN_ANOMALY": 242.5946, "EPHEMERIS_TYPE": 0, "CLASSIFICATION_TYPE": "U", "NORAD_CAT_ID": 35051, "ELEMENT_SET_NO": 999, "REV_AT_EPOCH": 86853, "BSTAR": 0.00083073982, "MEAN_MOTION_DOT": 3.075e-05, "MEAN_MOTION_DDOT": 0}, "tle": {"line1": "1 35051U 97051NX  25336.86412452  .00003075  00000+0  83074-3 0  9996", "line2": "2 35051  86.3255  13.1670 0010476 117.6322 242.5946 14.47524123868538"}}, "geometry": {"type": "Point", "coordinates": [-166.4567042469281, -25.010629320800145]}}, {"type": "Feature", "properties": {"norad_id": 35052, "name": "IRIDIUM 33 DEB", "group": "iridium-33-debris", "lat": -36.178205984728976, "lon": -153.92161152779119, "alt_km": 773.6754739922626, "timestamp": "2025-12-05T22:40:48.935064+00:00", "meta": {"OBJECT_NAME": "IRIDIUM 33 DEB", "OBJECT_ID": "1997-051NY", "EPOCH": "2025-12-04T20:38:14.764704", "MEAN_MOTION": 14.38478571, "ECCENTRICITY": 0.0013621, "INCLINATION": 86.3316, "RA_OF_ASC_NODE": 23.8542, "ARG_OF_PERICENTER": 106.9628, "MEAN_ANOMALY": 253.3064, "EPHEMERIS_TYPE": 0, "CLASSIFICATION_TYPE": "U", "NORAD_CAT_ID": 35052, "ELEMENT_SET_NO": 999, "REV_AT_EPOCH": 87162, "BSTAR": 0.00036777, "MEAN_MOTION_DOT": 1.143e-05, "MEAN_MOTION_DDOT": 0}, "tle": {"line1": "1 35052U 97051NY  25338.85989311  .00001143  00000+0  36777-3 0  9993", "line2": "2 35052  86.3316  23.8542 0013621 106.9628 253.3064 14.38478571871628"}}, "geometry": {"type": "Point", "coordinates": [-153.92161152779119, -36.178205984728976]}}, {"type": "Feature", "properties": {"norad_id": 35080, "name": "IRIDIUM 33 DEB", "group": "iridium-33-debris", "lat": -34.24737774281075, "lon": 53.033026850988726, "alt_km": 644.577024770776, "timestamp": "2025-12-05T22:40:48.935075+00:00", "meta": {"OBJECT_NAME": "IRIDIUM 33 DEB", "OBJECT_ID": "1997-051PF", "EPOCH": "2025-12-05T05:02:32.893152", "MEAN_MOTION": 14.84584595, "ECCENTRICITY": 0.00628471, "INCLINATION": 86.2078, "RA_OF_ASC_NODE": 55.9716, "ARG_OF_PERICENTER": 205.0492, "MEAN_ANOMALY": 154.768, "EPHEMERIS_TYPE": 0, "CLASSIFICATION_TYPE": "U", "NORAD_CAT_ID": 35080, "ELEMENT_SET_NO": 999, "REV_AT_EPOCH": 69576, "BSTAR": 0.013486204, "MEAN_MOTION_DOT": 0.0011973, "MEAN_MOTION_DDOT": 0}, "tle": {"line1": "1 35080U 97051PF  25339.21010293  .00119730  00000+0  13486-1 0  9991", "line2": "2 35080  86.2078  55.9716 0062847 205.0492 154.7680 14.84584595695768"}}, "geometry": {"type": "Point", "coordinates": [53.033026850988726, -34.24737774281075]}}, {"type": "Feature", "properties": {"norad_id": 35297, "name": "IRIDIUM 33 DEB", "group": "iridium-33-debris", "lat": -39.514282001103744, "lon": 62.67109810883322, "alt_km": 759.1667821929941, "timestamp": "2025-12-05T22:40:48.935085+00:00", "meta": {"OBJECT_NAME": "IRIDIUM 33 DEB", "OBJECT_ID": "1997-051PM", "EPOCH": "2025-11-28T13:02:32.385696", "MEAN_MOTION": 14.4505178, "ECCENTRICITY": 0.00162447, "INCLINATION": 86.3859, "RA_OF_ASC_NODE": 68.817, "ARG_OF_PERICENTER": 185.2069, "MEAN_ANOMALY": 174.8967, "EPHEMERIS_TYPE": 0, "CLASSIFICATION_TYPE": "U", "NORAD_CAT_ID": 35297, "ELEMENT_SET_NO": 999, "REV_AT_EPOCH": 70221, "BSTAR": 0.00072341306, "MEAN_MOTION_DOT": 2.549e-05, "MEAN_MOTION_DDOT": 0}, "tle": {"line1": "1 35297U 97051PM  25332.54343039  .00002549  00000+0  72341-3 0  9993", "line2": "2 35297  86.3859  68.8170 0016244 185.2069 174.8967 14.45051780702214"}}, "geometry": {"type": "Point", "coordinates": [62.67109810883322, -39.514282001103744]}}, {"type": "Feature", "properties": {"norad_id": 35299, "name": "IRIDIUM 33 DEB", "group": "iridium-33-debris", "lat": -2.2594790223346095, "lon": 35.99789305068223, "alt_km": 783.6464692136215, "timestamp": "2025-12-05T22:40:48.935096+00:00", "meta": {"OBJECT_NAME": "IRIDIUM 33 DEB", "OBJECT_ID": "1997-051PP", "EPOCH": "2025-12-04T22:15:32.154336", "MEAN_MOTION": 14.40800476, "ECCENTRICITY": 0.0058727, "INCLINATION": 86.2893, "RA_OF_ASC_NODE": 36.5873, "ARG_OF_PERICENTER": 127.2291, "MEAN_ANOMALY": 356.5642, "EPHEMERIS_TYPE": 0, "CLASSIFICATION_TYPE": "U", "NORAD_CAT_ID": 35299, "ELEMENT_SET_NO": 999, "REV_AT_EPOCH": 86218, "BSTAR": 0.0017577, "MEAN_MOTION_DOT": 5.762e-05, "MEAN_MOTION_DDOT": 0}, "tle": {"line1": "1 35299U 97051PP  25338.92745549  .00005762  00000+0  17577-2 0  9994", "line2": "2 35299  86.2893  36.5873 0058727 127.2291 356.5642 14.40800476862181"}}, "geometry": {"type": "Point", "coordinates": [35.99789305068223, -2.2594790223346095]}}]}